[{"OBJECT_NAME":"STARLINK-1593","OBJECT_ID":"2020-057C","EPOCH":"2026-03-10T00:00:02.999808","MEAN_MOTION":15.74657731,"ECCENTRICITY":0.00026845,"INCLINATION":53.0438,"RA_OF_ASC_NODE":268.8311,"ARG_OF_PERICENTER":147.5377,"MEAN_ANOMALY":277.5638,"EPHEMERIS_TYPE":0,"CLASSIFICATION_TYPE":"U","NORAD_CAT_ID":46119,"ELEMENT_SET_NO":999,"REV_AT_EPOCH":596,"BSTAR":0.0012691953,"MEAN_MOTION_DOT":0.00193505,"MEAN_MOTION_DDOT":0},{"OBJECT_NAME":"STARLINK-11729 [DTC]","OBJECT_ID":"2025-107K","EPOCH":"2026-03-09T12:05:38.749344","MEAN_MOTION":15.70827591,"ECCENTRICITY":0.00010733,"INCLINATION":43.0001,"RA_OF_ASC_NODE":99.8165,"ARG_OF_PERICENTER":340.5163,"MEAN_ANOMALY":19.5663,"EPHEMERIS_TYPE":0,"CLASSIFICATION_TYPE":"U","NORAD_CAT_ID":64073,"ELEMENT_SET_NO":999,"REV_AT_EPOCH":4726,"BSTAR":0.0022148561,"MEAN_MOTION_DOT":0.00293879,"MEAN_MOTION_DDOT":0}]
